[{"OBJECT_NAME":"O3B FM10","OBJECT_ID":"2014-083A","EPOCH":"2026-03-07T00:21:55.519488","MEAN_MOTION":5.00115262,"ECCENTRICITY":0.0002685,"INCLINATION":0.0432,"RA_OF_ASC_NODE":347.7636,"ARG_OF_PERICENTER":356.5565,"MEAN_ANOMALY":15.6666,"EPHEMERIS_TYPE":0,"CLASSIFICATION_TYPE":"U","NORAD_CAT_ID":40348,"ELEMENT_SET_NO":999,"REV_AT_EPOCH":20478,"BSTAR":0,"MEAN_MOTION_DOT":-2.6e-7,"MEAN_MOTION_DDOT":0},{"OBJECT_NAME":"O3B FM11","OBJECT_ID":"2014-083B","EPOCH":"2026-03-07T00:40:14.589696","MEAN_MOTION":5.0011563,"ECCENTRICITY":0.000313,"INCLINATION":0.0568,"RA_OF_ASC_NODE":0.4081,"ARG_OF_PERICENTER":333.8888,"MEAN_ANOMALY":25.6826,"EPHEMERIS_TYPE":0,"CLASSIFICATION_TYPE":"U","NORAD_CAT_ID":40349,"ELEMENT_SET_NO":999,"REV_AT_EPOCH":20480,"BSTAR":0,"MEAN_MOTION_DOT":-2.6e-7,"MEAN_MOTION_DDOT":0},{"OBJECT_NAME":"O3B FM12","OBJECT_ID":"2014-083C","EPOCH":"2026-03-03T10:58:05.766816","MEAN_MOTION":5.00115945,"ECCENTRICITY":0.00026432,"INCLINATION":0.056,"RA_OF_ASC_NODE":359.7796,"ARG_OF_PERICENTER":337.6957,"MEAN_ANOMALY":22.5061,"EPHEMERIS_TYPE":0,"CLASSIFICATION_TYPE":"U","NORAD_CAT_ID":40350,"ELEMENT_SET_NO":999,"REV_AT_EPOCH":20463,"BSTAR":0,"MEAN_MOTION_DOT":-2.8e-7,"MEAN_MOTION_DDOT":0},{"OBJECT_NAME":"O3B FM9","OBJECT_ID":"2014-083D","EPOCH":"2026-03-06T21:10:03.036576","MEAN_MOTION":5.00115924,"ECCENTRICITY":0.0002732,"INCLINATION":0.0579,"RA_OF_ASC_NODE":0.6785,"ARG_OF_PERICENTER":343.7503,"MEAN_ANOMALY":15.5577,"EPHEMERIS_TYPE":0,"CLASSIFICATION_TYPE":"U","NORAD_CAT_ID":40351,"ELEMENT_SET_NO":999,"REV_AT_EPOCH":20495,"BSTAR":0,"MEAN_MOTION_DOT":-2.6e-7,"MEAN_MOTION_DDOT":0},{"OBJECT_NAME":"ASTRA 2G","OBJECT_ID":"2014-089A","EPOCH":"2026-03-07T07:12:21.573216","MEAN_MOTION":1.00273869,"ECCENTRICITY":0.00042188,"INCLINATION":0.0549,"RA_OF_ASC_NODE":329.1569,"ARG_OF_PERICENTER":61.9271,"MEAN_ANOMALY":270.1902,"EPHEMERIS_TYPE":0,"CLASSIFICATION_TYPE":"U","NORAD_CAT_ID":40364,"ELEMENT_SET_NO":999,"REV_AT_EPOCH":4094,"BSTAR":0,"MEAN_MOTION_DOT":1.48e-6,"MEAN_MOTION_DDOT":0},{"OBJECT_NAME":"SES-9","OBJECT_ID":"2016-013A","EPOCH":"2026-03-07T08:09:38.686176","MEAN_MOTION":1.00272104,"ECCENTRICITY":0.00016639,"INCLINATION":0.0407,"RA_OF_ASC_NODE":310.1603,"ARG_OF_PERICENTER":91.0303,"MEAN_ANOMALY":354.5504,"EPHEMERIS_TYPE":0,"CLASSIFICATION_TYPE":"U","NORAD_CAT_ID":41380,"ELEMENT_SET_NO":999,"REV_AT_EPOCH":3641,"BSTAR":0,"MEAN_MOTION_DOT":-3.47e-6,"MEAN_MOTION_DDOT":0},{"OBJECT_NAME":"SES-10","OBJECT_ID":"2017-017A","EPOCH":"2026-03-07T09:06:38.850912","MEAN_MOTION":1.00271531,"ECCENTRICITY":0.00024576,"INCLINATION":0.0199,"RA_OF_ASC_NODE":74.589,"ARG_OF_PERICENTER":280.6126,"MEAN_ANOMALY":239.6379,"EPHEMERIS_TYPE":0,"CLASSIFICATION_TYPE":"U","NORAD_CAT_ID":42432,"ELEMENT_SET_NO":999,"REV_AT_EPOCH":3273,"BSTAR":0,"MEAN_MOTION_DOT":-2.74e-6,"MEAN_MOTION_DDOT":0},{"OBJECT_NAME":"SES-15","OBJECT_ID":"2017-026A","EPOCH":"2026-03-07T12:33:38.603808","MEAN_MOTION":1.00274261,"ECCENTRICITY":0.00010161,"INCLINATION":0.0427,"RA_OF_ASC_NODE":318.1999,"ARG_OF_PERICENTER":33.8962,"MEAN_ANOMALY":232.3748,"EPHEMERIS_TYPE":0,"CLASSIFICATION_TYPE":"U","NORAD_CAT_ID":42709,"ELEMENT_SET_NO":999,"REV_AT_EPOCH":641,"BSTAR":0,"MEAN_MOTION_DOT":5.8e-7,"MEAN_MOTION_DDOT":0},{"OBJECT_NAME":"SES-11 (ECHOSTAR 105)","OBJECT_ID":"2017-063A","EPOCH":"2026-03-07T08:50:38.755104","MEAN_MOTION":1.00268601,"ECCENTRICITY":0.00025488,"INCLINATION":0.028,"RA_OF_ASC_NODE":64.9902,"ARG_OF_PERICENTER":279.5374,"MEAN_ANOMALY":208.2656,"EPHEMERIS_TYPE":0,"CLASSIFICATION_TYPE":"U","NORAD_CAT_ID":42967,"ELEMENT_SET_NO":999,"REV_AT_EPOCH":3070,"BSTAR":0,"MEAN_MOTION_DOT":-9.1e-7,"MEAN_MOTION_DDOT":0},{"OBJECT_NAME":"SES-14","OBJECT_ID":"2018-012B","EPOCH":"2026-03-07T07:02:38.643648","MEAN_MOTION":1.00270422,"ECCENTRICITY":8.356e-5,"INCLINATION":0.0184,"RA_OF_ASC_NODE":94.6496,"ARG_OF_PERICENTER":269.3063,"MEAN_ANOMALY":219.1933,"EPHEMERIS_TYPE":0,"CLASSIFICATION_TYPE":"U","NORAD_CAT_ID":43175,"ELEMENT_SET_NO":999,"REV_AT_EPOCH":600,"BSTAR":0,"MEAN_MOTION_DOT":-2.8e-6,"MEAN_MOTION_DDOT":0},{"OBJECT_NAME":"O3B FM15","OBJECT_ID":"2018-024A","EPOCH":"2026-03-07T03:34:01.979328","MEAN_MOTION":5.00115721,"ECCENTRICITY":0.00026856,"INCLINATION":0.0487,"RA_OF_ASC_NODE":0.9511,"ARG_OF_PERICENTER":341.2868,"MEAN_ANOMALY":17.7477,"EPHEMERIS_TYPE":0,"CLASSIFICATION_TYPE":"U","NORAD_CAT_ID":43231,"ELEMENT_SET_NO":999,"REV_AT_EPOCH":14592,"BSTAR":0,"MEAN_MOTION_DOT":-2.6e-7,"MEAN_MOTION_DDOT":0},{"OBJECT_NAME":"O3B FM16","OBJECT_ID":"2018-024B","EPOCH":"2026-03-06T14:25:55.448544","MEAN_MOTION":5.00115911,"ECCENTRICITY":0.00028132,"INCLINATION":0.045,"RA_OF_ASC_NODE":2.8606,"ARG_OF_PERICENTER":339.2368,"MEAN_ANOMALY":17.8875,"EPHEMERIS_TYPE":0,"CLASSIFICATION_TYPE":"U","NORAD_CAT_ID":43232,"ELEMENT_SET_NO":999,"REV_AT_EPOCH":14581,"BSTAR":0,"MEAN_MOTION_DOT":-2.6e-7,"MEAN_MOTION_DDOT":0},{"OBJECT_NAME":"O3B FM14","OBJECT_ID":"2018-024C","EPOCH":"2026-03-07T05:48:08.277408","MEAN_MOTION":5.00115698,"ECCENTRICITY":0.0002845,"INCLINATION":0.0435,"RA_OF_ASC_NODE":1.7993,"ARG_OF_PERICENTER":344.8872,"MEAN_ANOMALY":13.3011,"EPHEMERIS_TYPE":0,"CLASSIFICATION_TYPE":"U","NORAD_CAT_ID":43233,"ELEMENT_SET_NO":999,"REV_AT_EPOCH":14584,"BSTAR":0,"MEAN_MOTION_DOT":-2.6e-7,"MEAN_MOTION_DDOT":0},{"OBJECT_NAME":"O3B FM13","OBJECT_ID":"2018-024D","EPOCH":"2026-03-03T02:38:16.342368","MEAN_MOTION":5.00115687,"ECCENTRICITY":0.00042952,"INCLINATION":0.0485,"RA_OF_ASC_NODE":331.6373,"ARG_OF_PERICENTER":331.6147,"MEAN_ANOMALY":56.6997,"EPHEMERIS_TYPE":0,"CLASSIFICATION_TYPE":"U","NORAD_CAT_ID":43234,"ELEMENT_SET_NO":999,"REV_AT_EPOCH":14574,"BSTAR":0,"MEAN_MOTION_DOT":-2.8e-7,"MEAN_MOTION_DDOT":0},{"OBJECT_NAME":"SES-12","OBJECT_ID":"2018-049A","EPOCH":"2026-03-07T00:40:44.122080","MEAN_MOTION":1.00270171,"ECCENTRICITY":0.00018212,"INCLINATION":0.018,"RA_OF_ASC_NODE":84.2897,"ARG_OF_PERICENTER":220.4205,"MEAN_ANOMALY":325.1973,"EPHEMERIS_TYPE":0,"CLASSIFICATION_TYPE":"U","NORAD_CAT_ID":43488,"ELEMENT_SET_NO":999,"REV_AT_EPOCH":2839,"BSTAR":0,"MEAN_MOTION_DOT":-2.72e-6,"MEAN_MOTION_DDOT":0},{"OBJECT_NAME":"O3B FM20","OBJECT_ID":"2019-020A","EPOCH":"2026-03-07T01:37:46.026912","MEAN_MOTION":5.00115512,"ECCENTRICITY":0.0002796,"INCLINATION":0.0518,"RA_OF_ASC_NODE":359.705,"ARG_OF_PERICENTER":334.4568,"MEAN_ANOMALY":25.8192,"EPHEMERIS_TYPE":0,"CLASSIFICATION_TYPE":"U","NORAD_CAT_ID":44112,"ELEMENT_SET_NO":999,"REV_AT_EPOCH":12646,"BSTAR":0,"MEAN_MOTION_DOT":-2.6e-7,"MEAN_MOTION_DDOT":0},{"OBJECT_NAME":"O3B FM19","OBJECT_ID":"2019-020B","EPOCH":"2026-03-06T21:28:58.608192","MEAN_MOTION":5.00115814,"ECCENTRICITY":0.00043119,"INCLINATION":0.0567,"RA_OF_ASC_NODE":352.2118,"ARG_OF_PERICENTER":343.732,"MEAN_ANOMALY":24.0309,"EPHEMERIS_TYPE":0,"CLASSIFICATION_TYPE":"U","NORAD_CAT_ID":44113,"ELEMENT_SET_NO":999,"REV_AT_EPOCH":12632,"BSTAR":0,"MEAN_MOTION_DOT":-2.6e-7,"MEAN_MOTION_DDOT":0}]
